STARLINK-34084          
1 63970U 25099U   26198.23605749  .00007210  00000+0  27126-3 0  9992
2 63970  43.0033 164.1820 0001630 272.7433  87.3232 15.27581304 67150
STARLINK-34138          
1 63971U 25099V   26198.26609662  .00007097  00000+0  26717-3 0  9992
2 63971  43.0001 160.9390 0001008 278.7885  81.2853 15.27581853 67193
STARLINK-34115          
1 63972U 25099W   26198.25581837  .00010441  00000+0  38831-3 0  9992
2 63972  43.0003 160.8656 0001040 270.4959  89.5774 15.27587111 67193
STARLINK-34028          
1 63973U 25099X   26198.28537427  .00006634  00000+0  25034-3 0  9992
2 63973  43.0013 161.0951 0000948 314.5866  45.4908 15.27582652 67194
STARLINK-33942          
1 63974U 25099Y   26198.28153651  .00014132  00000+0  52192-3 0  9993
2 63974  43.0011 161.0634 0001289 272.3460  87.7244 15.27591043 67197
STARLINK-34139          
1 63975U 25099Z   26198.27768072  .00007102  00000+0  26727-3 0  9996
2 63975  43.0021 161.0317 0001124 259.8993 100.1732 15.27589687 67100
STARLINK-34090          
1 63976U 25099AA  26198.27380617  .00007357  00000+0  27658-3 0  9998
2 63976  43.0032 161.0013 0001348 270.7992  89.2705 15.27582167 67108
STARLINK-34105          
1 63977U 25099AB  26198.27125081  .00006790  00000+0  25608-3 0  9994
2 63977  43.0015 160.9788 0001330 271.5657  88.5042 15.27572697 67108
STARLINK-33642          
1 63978U 25099AC  26198.26353025  .00008207  00000+0  30735-3 0  9997
2 63978  42.9981 160.9189 0000380 288.4673  71.6137 15.27587399 67106
STARLINK-34045          
1 63979U 25099AD  26198.25967270  .00006776  00000+0  25552-3 0  9990
2 63979  42.9999 160.8871 0000901 264.2378  95.8371 15.27581653 67101
SCS-01 A                
1 63982U 25100A   26198.26895413  .00004209  00000+0  19249-3 0  9992
2 63982  97.3658 270.3755 0026683 256.8910 102.9347 15.20768624 65214
SCS-01 B                
1 63983U 25100B   26198.28225877  .00016562  00000+0  41186-3 0  9996
2 63983  97.3618 275.5116 0010000 178.2680 181.8603 15.40315418 65544
SCS-01 C                
1 63984U 25100C   26198.26980188  .00004153  00000+0  18977-3 0  9993
2 63984  97.3653 270.3504 0028511 254.0553 105.7541 15.20758087 65194
SCS-01 D                
1 63985U 25100D   26198.25065596  .00013588  00000+0  42403-3 0  9993
2 63985  97.3651 273.9970 0010335 163.9181 196.2392 15.33278586 65430
SCS-01 E                
1 63986U 25100E   26198.27043609  .00006785  00000+0  31080-3 0  9997
2 63986  97.3615 270.3112 0010706 202.3736 157.7034 15.20754171 35028
SCS-01 F                
1 63987U 25100F   26198.26812301  .00006860  00000+0  31468-3 0  9994
2 63987  97.3623 270.3449 0008166 192.2016 167.9023 15.20719444 65204
SCS-01 G                
1 63988U 25100G   26198.26931075  .00002605  00000+0  10112-3 0  9991
2 63988  97.3688 272.8868 0012538 191.1352 168.9611 15.26921658 65355
SCS-01 H                
1 63989U 25100H   26198.27869087  .00017102  00000+0  47005-3 0  9995
2 63989  97.3670 274.8279 0009422 163.3184 196.8372 15.37235520 65483
SCS-01 J                
1 63990U 25100J   26198.24914447  .00013167  00000+0  41548-3 0  9998
2 63990  97.3611 273.7896 0009792 170.6567 189.4859 15.32937324 65416
SCS-01 K                
1 63991U 25100K   26198.26591199  .00006824  00000+0  31339-3 0  9995
2 63991  97.3621 270.3474 0009660 200.8320 159.2523 15.20670998 65196
SCS-01 L                
1 63992U 25100L   26198.26680200  .00007536  00000+0  34540-3 0  9996
2 63992  97.3652 270.5129 0009304 184.3885 175.7270 15.20705443 65182
SCS-01 M                
1 63993U 25100M   26198.28935115  .00018127  00000+0  50272-3 0  9995
2 63993  97.3645 274.6814 0009578 181.4799 178.6419 15.36941199 65472
STARLINK-33871          
1 63994U 25101A   26197.71093027  .00008422  00000+0  31515-3 0  9997
2 63994  43.0023 349.6431 0001708 272.3532  87.7124 15.27588345 66712
STARLINK-34154          
1 63995U 25101B   26197.74804700  .00009882  00000+0  36802-3 0  9994
2 63995  43.0056 349.0632 0001646 255.4162 104.6507 15.27591982 66791
STARLINK-34158          
1 63996U 25101C   26197.74034533  .00008159  00000+0  30560-3 0  9995
2 63996  43.0044 349.0437 0001088 270.1352  89.9375 15.27590575 66792
STARLINK-34165          
1 63997U 25101D   26197.72877668  .00009955  00000+0  37075-3 0  9991
2 63997  43.0035 348.9136 0001208 263.2318  96.8396 15.27582784 66799
STARLINK-34150          
1 63998U 25101E   26197.44168346  .00008617  00000+0  32227-3 0  9995
2 63998  42.9990 351.0631 0001611 286.2543  73.8132 15.27583482 66740
STARLINK-34169          
1 63999U 25101F   26197.73905364  .00007257  00000+0  27290-3 0  9990
2 63999  43.0046 348.9948 0001112 274.5309  85.5416 15.27590131 66796
STARLINK-34152          
1 64000U 25101G   26197.81086237  .00008914  00000+0  33289-3 0  9998
2 64000  43.0073 348.6751 0003143 298.6670  61.3866 15.27595894 66807
STARLINK-33927          
1 64001U 25101H   26197.78531389  .00006989  00000+0  26316-3 0  9991
2 64001  43.0036 349.3413 0001759 267.1139  92.9511 15.27590607 66794
