OBJECT_NAME,OBJECT_ID,EPOCH,MEAN_MOTION,ECCENTRICITY,INCLINATION,RA_OF_ASC_NODE,ARG_OF_PERICENTER,MEAN_ANOMALY,EPHEMERIS_TYPE,CLASSIFICATION_TYPE,NORAD_CAT_ID,ELEMENT_SET_NO,REV_AT_EPOCH,BSTAR,MEAN_MOTION_DOT,MEAN_MOTION_DDOT
STARLINK-34084,2025-099U,2026-07-17T05:39:55.367136,15.27581304,.00016309,43.0033,164.1820,272.7433,87.3232,0,U,63970,999,6715,.27125738E-3,.721E-4,0
STARLINK-34138,2025-099V,2026-07-17T06:23:10.747968,15.27581853,.00010082,43.0001,160.9390,278.7885,81.2853,0,U,63971,999,6719,.2671685E-3,.7097E-4,0
STARLINK-34115,2025-099W,2026-07-17T06:08:22.707168,15.27587111,.00010404,43.0003,160.8656,270.4959,89.5774,0,U,63972,999,6719,.38831433E-3,.10441E-3,0
STARLINK-34028,2025-099X,2026-07-17T06:50:56.336928,15.27582652,.00009488,43.0013,161.0951,314.5866,45.4908,0,U,63973,999,6719,.25034023E-3,.6634E-4,0
STARLINK-33942,2025-099Y,2026-07-17T06:45:24.754464,15.27591043,.00012898,43.0011,161.0634,272.3460,87.7244,0,U,63974,999,6719,.52192031E-3,.14132E-3,0
STARLINK-34139,2025-099Z,2026-07-17T06:39:51.614208,15.27589687,.00011244,43.0021,161.0317,259.8993,100.1732,0,U,63975,999,6710,.26727193E-3,.7102E-4,0
STARLINK-34090,2025-099AA,2026-07-17T06:34:16.853088,15.27582167,.00013487,43.0032,161.0013,270.7992,89.2705,0,U,63976,999,6710,.27657718E-3,.7357E-4,0
STARLINK-34105,2025-099AB,2026-07-17T06:30:36.069984,15.27572697,.00013302,43.0015,160.9788,271.5657,88.5042,0,U,63977,999,6710,.25607791E-3,.679E-4,0
STARLINK-33642,2025-099AC,2026-07-17T06:19:29.013600,15.27587399,.00003807,42.9981,160.9189,288.4673,71.6137,0,U,63978,999,6710,.30734504E-3,.8207E-4,0
STARLINK-34045,2025-099AD,2026-07-17T06:13:55.721280,15.27581653,.00009016,42.9999,160.8871,264.2378,95.8371,0,U,63979,999,6710,.25551846E-3,.6776E-4,0
SCS-01 A,2025-100A,2026-07-17T06:27:17.636832,15.20768624,.00266834,97.3658,270.3755,256.8910,102.9347,0,U,63982,999,6521,.19248806E-3,.4209E-4,0
SCS-01 B,2025-100B,2026-07-17T06:46:27.157728,15.40315418,.00100001,97.3618,275.5116,178.2680,181.8603,0,U,63983,999,6554,.41185703E-3,.16562E-3,0
SCS-01 C,2025-100C,2026-07-17T06:28:30.882432,15.20758087,.00285112,97.3653,270.3504,254.0553,105.7541,0,U,63984,999,6519,.18977429E-3,.4153E-4,0
SCS-01 D,2025-100D,2026-07-17T06:00:56.674944,15.33278586,.00103357,97.3651,273.9970,163.9181,196.2392,0,U,63985,999,6543,.42403345E-3,.13588E-3,0
SCS-01 E,2025-100E,2026-07-17T06:29:25.678176,15.20754171,.00107064,97.3615,270.3112,202.3736,157.7034,0,U,63986,999,3502,.31079953E-3,.6785E-4,0
SCS-01 F,2025-100F,2026-07-17T06:26:05.828064,15.20719444,.00081668,97.3623,270.3449,192.2016,167.9023,0,U,63987,999,6520,.31468461E-3,.686E-4,0
SCS-01 G,2025-100G,2026-07-17T06:27:48.448800,15.26921658,.00125383,97.3688,272.8868,191.1352,168.9611,0,U,63988,999,6535,.10112168E-3,.2605E-4,0
SCS-01 H,2025-100H,2026-07-17T06:41:18.891168,15.37235520,.00094221,97.3670,274.8279,163.3184,196.8372,0,U,63989,999,6548,.47004707E-3,.17102E-3,0
SCS-01 J,2025-100J,2026-07-17T05:58:46.082208,15.32937324,.00097925,97.3611,273.7896,170.6567,189.4859,0,U,63990,999,6541,.41547618E-3,.13167E-3,0
SCS-01 K,2025-100K,2026-07-17T06:22:54.795936,15.20670998,.00096609,97.3621,270.3474,200.8320,159.2523,0,U,63991,999,6519,.31338636E-3,.6824E-4,0
SCS-01 L,2025-100L,2026-07-17T06:24:11.692800,15.20705443,.00093049,97.3652,270.5129,184.3885,175.7270,0,U,63992,999,6518,.34539674E-3,.7536E-4,0
SCS-01 M,2025-100M,2026-07-17T06:56:39.939360,15.36941199,.00095789,97.3645,274.6814,181.4799,178.6419,0,U,63993,999,6547,.50271755E-3,.18127E-3,0
STARLINK-33871,2025-101A,2026-07-16T17:03:44.375328,15.27588345,.0001708,43.0023,349.6431,272.3532,87.7124,0,U,63994,999,6671,.31515083E-3,.8422E-4,0
STARLINK-34154,2025-101B,2026-07-16T17:57:11.260800,15.27591982,.00016469,43.0056,349.0632,255.4162,104.6507,0,U,63995,999,6679,.36801705E-3,.9882E-4,0
STARLINK-34158,2025-101C,2026-07-16T17:46:05.836512,15.27590575,.00010886,43.0044,349.0437,270.1352,89.9375,0,U,63996,999,6679,.30559725E-3,.8159E-4,0
STARLINK-34165,2025-101D,2026-07-16T17:29:26.305152,15.27582784,.00012086,43.0035,348.9136,263.2318,96.8396,0,U,63997,999,6679,.37074934E-3,.9955E-4,0
STARLINK-34150,2025-101E,2026-07-16T10:36:01.450944,15.27583482,.0001611,42.9990,351.0631,286.2543,73.8132,0,U,63998,999,6674,.32227E-3,.8617E-4,0
STARLINK-34169,2025-101F,2026-07-16T17:44:14.234496,15.27590131,.00011121,43.0046,348.9948,274.5309,85.5416,0,U,63999,999,6679,.27289826E-3,.7257E-4,0
STARLINK-34152,2025-101G,2026-07-16T19:27:38.508768,15.27595894,.00031438,43.0073,348.6751,298.6670,61.3866,0,U,64000,999,6680,.33288949E-3,.8914E-4,0
STARLINK-33927,2025-101H,2026-07-16T18:50:51.120096,15.27590607,.00017596,43.0036,349.3413,267.1139,92.9511,0,U,64001,999,6679,.26316314E-3,.6989E-4,0
